{
  "type": "FeatureCollection",
  "features": [
    {
      "type": "Feature",
      "properties": {
        "norad_id": 39111,
        "name": "COSMOS 2251 DEB",
        "group": "cosmos-2251-debris",
        "lat": 7.627073270787227,
        "lon": 41.01528130320721,
        "alt_km": 517.2566032250725,
        "timestamp": "2025-12-13T20:38:51.406256+00:00",
        "meta_object_name": "COSMOS 2251 DEB",
        "meta_object_id": "1993-036BUA",
        "meta_epoch": "2025-12-01T22:58:55.551360",
        "meta_mean_motion": 15.11912111,
        "meta_eccentricity": 0.00109111,
        "meta_inclination": 74.0059,
        "meta_ra_of_asc_node": 63.5328,
        "meta_arg_of_pericenter": 39.1207,
        "meta_mean_anomaly": 321.0773,
        "meta_ephemeris_type": 0,
        "meta_classification_type": "U",
        "meta_norad_cat_id": 39111,
        "meta_element_set_no": 999,
        "meta_rev_at_epoch": 8982,
        "meta_bstar": 0.0056424119,
        "meta_mean_motion_dot": 0.00098096,
        "meta_mean_motion_ddot": 0,
        "tle_line1": "1 39111U 93036BUA 25335.95758740  .00098096  00000+0  56424-2 0  9993",
        "tle_line2": "2 39111  74.0059  63.5328 0010911  39.1207 321.0773 15.11912111 89826"
      },
      "geometry": {
        "type": "Point",
        "coordinates": [
          41.01528130320721,
          7.627073270787227
        ]
      }
    },
    {
      "type": "Feature",
      "properties": {
        "norad_id": 39546,
        "name": "COSMOS 2251 DEB",
        "group": "cosmos-2251-debris",
        "lat": 32.16295606593799,
        "lon": 144.9363922823027,
        "alt_km": 594.1649183737873,
        "timestamp": "2025-12-13T20:38:51.406266+00:00",
        "meta_object_name": "COSMOS 2251 DEB",
        "meta_object_id": "1993-036BUC",
        "meta_epoch": "2025-12-12T02:39:31.562208",
        "meta_mean_motion": 14.92027517,
        "meta_eccentricity": 0.00441282,
        "meta_inclination": 73.9967,
        "meta_ra_of_asc_node": 138.0578,
        "meta_arg_of_pericenter": 298.1056,
        "meta_mean_anomaly": 61.5669,
        "meta_ephemeris_type": 0,
        "meta_classification_type": "U",
        "meta_norad_cat_id": 39546,
        "meta_element_set_no": 999,
        "meta_rev_at_epoch": 64427,
        "meta_bstar": 0.0021038636,
        "meta_mean_motion_dot": 0.00021778,
        "meta_mean_motion_ddot": 0,
        "tle_line1": "1 39546U 93036BUC 25346.11078197  .00021778  00000+0  21039-2 0  9993",
        "tle_line2": "2 39546  73.9967 138.0578 0044128 298.1056  61.5669 14.92027517644276"
      },
      "geometry": {
        "type": "Point",
        "coordinates": [
          144.9363922823027,
          32.16295606593799
        ]
      }
    },
    {
      "type": "Feature",
      "properties": {
        "norad_id": 39547,
        "name": "COSMOS 2251 DEB",
        "group": "cosmos-2251-debris",
        "lat": 63.69996050018919,
        "lon": 51.57525501091138,
        "alt_km": 547.690049548768,
        "timestamp": "2025-12-13T20:38:51.406277+00:00",
        "meta_object_name": "COSMOS 2251 DEB",
        "meta_object_id": "1993-036BUD",
        "meta_epoch": "2025-12-11T09:19:23.142720",
        "meta_mean_motion": 15.03149488,
        "meta_eccentricity": 0.00052092,
        "meta_inclination": 74.0018,
        "meta_ra_of_asc_node": 21.1464,
        "meta_arg_of_pericenter": 16.2917,
        "meta_mean_anomaly": 0.6798,
        "meta_ephemeris_type": 0,
        "meta_classification_type": "U",
        "meta_norad_cat_id": 39547,
        "meta_element_set_no": 999,
        "meta_rev_at_epoch": 64005,
        "meta_bstar": 0.0051209995,
        "meta_mean_motion_dot": 0.00069871,
        "meta_mean_motion_ddot": 0,
        "tle_line1": "1 39547U 93036BUD 25345.38846230  .00069871  00000+0  51210-2 0  9993",
        "tle_line2": "2 39547  74.0018  21.1464 0005209  16.2917   0.6798 15.03149488640058"
      },
      "geometry": {
        "type": "Point",
        "coordinates": [
          51.57525501091138,
          63.69996050018919
        ]
      }
    },
    {
      "type": "Feature",
      "properties": {
        "norad_id": 39553,
        "name": "COSMOS 2251 DEB",
        "group": "cosmos-2251-debris",
        "lat": -1.8873567060776693,
        "lon": 148.6208943079668,
        "alt_km": 863.6711982077186,
        "timestamp": "2025-12-13T20:38:51.406287+00:00",
        "meta_object_name": "COSMOS 2251 DEB",
        "meta_object_id": "1993-036BUK",
        "meta_epoch": "2025-12-07T06:00:50.455872",
        "meta_mean_motion": 13.99876591,
        "meta_eccentricity": 0.02014092,
        "meta_inclination": 74.0304,
        "meta_ra_of_asc_node": 339.5232,
        "meta_arg_of_pericenter": 116.8065,
        "meta_mean_anomaly": 245.3825,
        "meta_ephemeris_type": 0,
        "meta_classification_type": "U",
        "meta_norad_cat_id": 39553,
        "meta_element_set_no": 999,
        "meta_rev_at_epoch": 75540,
        "meta_bstar": 0.00088887208,
        "meta_mean_motion_dot": 1.532e-05,
        "meta_mean_motion_ddot": 0,
        "tle_line1": "1 39553U 93036BUK 25341.25058398  .00001532  00000+0  88887-3 0  9993",
        "tle_line2": "2 39553  74.0304 339.5232 0201409 116.8065 245.3825 13.99876591755403"
      },
      "geometry": {
        "type": "Point",
        "coordinates": [
          148.6208943079668,
          -1.8873567060776693
        ]
      }
    },
    {
      "type": "Feature",
      "properties": {
        "norad_id": 39554,
        "name": "COSMOS 2251 DEB",
        "group": "cosmos-2251-debris",
        "lat": -62.00414706108218,
        "lon": -130.32735614904522,
        "alt_km": 542.3656536794497,
        "timestamp": "2025-12-13T20:38:51.406297+00:00",
        "meta_object_name": "COSMOS 2251 DEB",
        "meta_object_id": "1993-036BUL",
        "meta_epoch": "2025-12-10T06:12:03.924864",
        "meta_mean_motion": 15.10130993,
        "meta_eccentricity": 0.0002993,
        "meta_inclination": 74.0187,
        "meta_ra_of_asc_node": 269.7383,
        "meta_arg_of_pericenter": 74.7531,
        "meta_mean_anomaly": 81.5927,
        "meta_ephemeris_type": 0,
        "meta_classification_type": "U",
        "meta_norad_cat_id": 39554,
        "meta_element_set_no": 999,
        "meta_rev_at_epoch": 64347,
        "meta_bstar": 0.0046896,
        "meta_mean_motion_dot": 0.000773,
        "meta_mean_motion_ddot": 0,
        "tle_line1": "1 39554U 93036BUL 25344.25837876  .00077300  00000+0  46896-2 0  9992",
        "tle_line2": "2 39554  74.0187 269.7383 0002993  74.7531  81.5927 15.10130993643471"
      },
      "geometry": {
        "type": "Point",
        "coordinates": [
          -130.32735614904522,
          -62.00414706108218
        ]
      }
    },
    {
      "type": "Feature",
      "properties": {
        "norad_id": 39583,
        "name": "COSMOS 2251 DEB",
        "group": "cosmos-2251-debris",
        "lat": 44.40552368704044,
        "lon": 48.676217085949766,
        "alt_km": 755.2255307188989,
        "timestamp": "2025-12-13T20:38:51.406307+00:00",
        "meta_object_name": "COSMOS 2251 DEB",
        "meta_object_id": "1993-036BUN",
        "meta_epoch": "2025-12-13T00:19:01.768224",
        "meta_mean_motion": 14.60448546,
        "meta_eccentricity": 0.01368586,
        "meta_inclination": 73.9329,
        "meta_ra_of_asc_node": 246.7005,
        "meta_arg_of_pericenter": 0.0427,
        "meta_mean_anomaly": 0.0725,
        "meta_ephemeris_type": 0,
        "meta_classification_type": "U",
        "meta_norad_cat_id": 39583,
        "meta_element_set_no": 999,
        "meta_rev_at_epoch": 61783,
        "meta_bstar": 0.0026464366,
        "meta_mean_motion_dot": 0.00014636,
        "meta_mean_motion_ddot": 0,
        "tle_line1": "1 39583U 93036BUN 25347.01321491  .00014636  00000+0  26464-2 0  9994",
        "tle_line2": "2 39583  73.9329 246.7005 0136858   0.0427   0.0725 14.60448546617832"
      },
      "geometry": {
        "type": "Point",
        "coordinates": [
          48.676217085949766,
          44.40552368704044
        ]
      }
    },
    {
      "type": "Feature",
      "properties": {
        "norad_id": 39585,
        "name": "COSMOS 2251 DEB",
        "group": "cosmos-2251-debris",
        "lat": -48.05125744329428,
        "lon": -79.37970815000182,
        "alt_km": 719.9107217344381,
        "timestamp": "2025-12-13T20:38:51.406317+00:00",
        "meta_object_name": "COSMOS 2251 DEB",
        "meta_object_id": "1993-036BUQ",
        "meta_epoch": "2025-12-09T14:49:35.322816",
        "meta_mean_motion": 14.58655096,
        "meta_eccentricity": 0.0065405,
        "meta_inclination": 74.0411,
        "meta_ra_of_asc_node": 307.2584,
        "meta_arg_of_pericenter": 69.0888,
        "meta_mean_anomaly": 291.7262,
        "meta_ephemeris_type": 0,
        "meta_classification_type": "U",
        "meta_norad_cat_id": 39585,
        "meta_element_set_no": 999,
        "meta_rev_at_epoch": 62475,
        "meta_bstar": 0.00049693,
        "meta_mean_motion_dot": 2.356e-05,
        "meta_mean_motion_ddot": 0,
        "tle_line1": "1 39585U 93036BUQ 25343.61776994  .00002356  00000+0  49693-3 0  9996",
        "tle_line2": "2 39585  74.0411 307.2584 0065405  69.0888 291.7262 14.58655096624759"
      },
      "geometry": {
        "type": "Point",
        "coordinates": [
          -79.37970815000182,
          -48.05125744329428
        ]
      }
    }
  ]
}